[
    {
        "Altitude(m)": 553859.9983149843,
        "Argument of Periapsis(deg)": 0.006622991110713501,
        "Eccentricity": 0.0,
        "Inclination(deg)": 53.0,
        "Latitude(deg)": 3.492904197300093,
        "Longitude(deg)": -13.394843480376114,
        "Mean Anomaly(deg)": -184.45380713242244,
        "RAAN(deg)": 269.990143368528,
        "Satellite Name": "Starlink Shell 1 1198",
        "Satellite Number": 1198,
        "Semi-Major Axis(m)": 6931778.249405717,
        "Time(s)": 190
    },
    {
        "Altitude(m)": 553907.2789754518,
        "Argument of Periapsis(deg)": 0.0069715695902247375,
        "Eccentricity": 0.0,
        "Inclination(deg)": 53.0,
        "Latitude(deg)": 2.9893790737345354,
        "Longitude(deg)": -13.05823156050817,
        "Mean Anomaly(deg)": -183.82697592886572,
        "RAAN(deg)": 269.9896245984506,
        "Satellite Name": "Starlink Shell 1 1198",
        "Satellite Number": 1198,
        "Semi-Major Axis(m)": 6931778.249405717,
        "Time(s)": 200
    },
    {
        "Altitude(m)": 553957.3793597779,
        "Argument of Periapsis(deg)": 0.007320148069735974,
        "Eccentricity": 0.0,
        "Inclination(deg)": 53.0,
        "Latitude(deg)": 2.4857272163924113,
        "Longitude(deg)": -12.721969868809875,
        "Mean Anomaly(deg)": -183.20014472530892,
        "RAAN(deg)": 269.98910582837306,
        "Satellite Name": "Starlink Shell 1 1198",
        "Satellite Number": 1198,
        "Semi-Major Axis(m)": 6931778.249405717,
        "Time(s)": 210
    },
    {
        "Altitude(m)": 554010.2988378691,
        "Argument of Periapsis(deg)": 0.007668726549247212,
        "Eccentricity": 0.0,
        "Inclination(deg)": 53.0,
        "Latitude(deg)": 1.9819717111040964,
        "Longitude(deg)": -12.386000478420717,
        "Mean Anomaly(deg)": -182.57331352175228,
        "RAAN(deg)": 269.9885870582956,
        "Satellite Name": "Starlink Shell 1 1198",
        "Satellite Number": 1198,
        "Semi-Major Axis(m)": 6931778.249405717,
        "Time(s)": 220
    },
    {
        "Altitude(m)": 554066.0354268741,
        "Argument of Periapsis(deg)": 0.00801730502875845,
        "Eccentricity": 0.0,
        "Inclination(deg)": 53.0,
        "Latitude(deg)": 1.4781355820574824,
        "Longitude(deg)": -12.050265592805687,
        "Mean Anomaly(deg)": -181.94648231819554,
        "RAAN(deg)": 269.9880682882182,
        "Satellite Name": "Starlink Shell 1 1198",
        "Satellite Number": 1198,
        "Semi-Major Axis(m)": 6931778.249405717,
        "Time(s)": 230
    },
    {
        "Altitude(m)": 554124.5857893928,
        "Argument of Periapsis(deg)": 0.008365883508269684,
        "Eccentricity": 0.0,
        "Inclination(deg)": 53.0,
        "Latitude(deg)": 0.9742418035973069,
        "Longitude(deg)": -11.714707016143494,
        "Mean Anomaly(deg)": -181.31965111463884,
        "RAAN(deg)": 269.98754951814067,
        "Satellite Name": "Starlink Shell 1 1198",
        "Satellite Number": 1198,
        "Semi-Major Axis(m)": 6931778.249405717,
        "Time(s)": 240
    },
    {
        "Altitude(m)": 554185.9452323917,
        "Argument of Periapsis(deg)": 0.008714461987780921,
        "Eccentricity": 0.0,
        "Inclination(deg)": 53.0,
        "Latitude(deg)": 0.47031331197367193,
        "Longitude(deg)": -11.37926713662117,
        "Mean Anomaly(deg)": -180.6928199110821,
        "RAAN(deg)": 269.98703074806315,
        "Satellite Name": "Starlink Shell 1 1198",
        "Satellite Number": 1198,
        "Semi-Major Axis(m)": 6931778.249405717,
        "Time(s)": 250
    },
    {
        "Altitude(m)": 554250.107706768,
        "Argument of Periapsis(deg)": 0.009063040467292158,
        "Eccentricity": 0.0,
        "Inclination(deg)": 53.0,
        "Latitude(deg)": -0.033626982940978135,
        "Longitude(deg)": -11.043888396884872,
        "Mean Anomaly(deg)": -180.06598870752535,
        "RAAN(deg)": 269.98651197798574,
        "Satellite Name": "Starlink Shell 1 1198",
        "Satellite Number": 1198,
        "Semi-Major Axis(m)": 6931778.249405717,
        "Time(s)": 260
    },
    {
        "Altitude(m)": 554317.0658076,
        "Argument of Periapsis(deg)": 0.009411618946803396,
        "Eccentricity": 0.0,
        "Inclination(deg)": 53.0,
        "Latitude(deg)": -0.5375561859596055,
        "Longitude(deg)": -10.70851276450955,
        "Mean Anomaly(deg)": -179.4391575039687,
        "RAAN(deg)": 269.9859932079082,
        "Satellite Name": "Starlink Shell 1 1198",
        "Satellite Number": 1198,
        "Semi-Major Axis(m)": 6931778.249405717,
        "Time(s)": 270
    },
    {
        "Altitude(m)": 554386.8107751061,
        "Argument of Periapsis(deg)": 0.009760197426314633,
        "Eccentricity": 0.0,
        "Inclination(deg)": 53.0,
        "Latitude(deg)": -1.041451404903944,
        "Longitude(deg)": -10.373082715354085,
        "Mean Anomaly(deg)": -178.81232630041194,
        "RAAN(deg)": 269.98547443783076,
        "Satellite Name": "Starlink Shell 1 1198",
        "Satellite Number": 1198,
        "Semi-Major Axis(m)": 6931778.249405717,
        "Time(s)": 280
    },
    {
        "Altitude(m)": 554459.3324962208,
        "Argument of Periapsis(deg)": 0.01010877590582587,
        "Eccentricity": 0.0,
        "Inclination(deg)": 53.0,
        "Latitude(deg)": -1.5452897389258198,
        "Longitude(deg)": -10.037540704049572,
        "Mean Anomaly(deg)": -178.18549509685528,
        "RAAN(deg)": 269.9849556677533,
        "Satellite Name": "Starlink Shell 1 1198",
        "Satellite Number": 1198,
        "Semi-Major Axis(m)": 6931778.249405717,
        "Time(s)": 290
    },
    {
        "Altitude(m)": 554534.6195069102,
        "Argument of Periapsis(deg)": 0.010457354385337106,
        "Eccentricity": 0.0,
        "Inclination(deg)": 53.0,
        "Latitude(deg)": -2.049048266819996,
        "Longitude(deg)": -9.701828634482814,
        "Mean Anomaly(deg)": -177.5586638932985,
        "RAAN(deg)": 269.98443689767583,
        "Satellite Name": "Starlink Shell 1 1198",
        "Satellite Number": 1198,
        "Semi-Major Axis(m)": 6931778.249405717,
        "Time(s)": 300
    },
    {
        "Altitude(m)": 554612.6589951235,
        "Argument of Periapsis(deg)": 0.010805932864848343,
        "Eccentricity": 0.0,
        "Inclination(deg)": 53.0,
        "Latitude(deg)": -2.5527040353177735,
        "Longitude(deg)": -9.36588884314381,
        "Mean Anomaly(deg)": -176.9318326897418,
        "RAAN(deg)": 269.9839181275983,
        "Satellite Name": "Starlink Shell 1 1198",
        "Satellite Number": 1198,
        "Semi-Major Axis(m)": 6931778.249405717,
        "Time(s)": 310
    },
    {
        "Altitude(m)": 554693.4368044495,
        "Argument of Periapsis(deg)": 0.01115451134435958,
        "Eccentricity": 0.0,
        "Inclination(deg)": 53.0,
        "Latitude(deg)": -3.0562340473466514,
        "Longitude(deg)": -9.029663569581173,
        "Mean Anomaly(deg)": -176.30500148618512,
        "RAAN(deg)": 269.9833993575209,
        "Satellite Name": "Starlink Shell 1 1198",
        "Satellite Number": 1198,
        "Semi-Major Axis(m)": 6931778.249405717,
        "Time(s)": 320
    },
    {
        "Altitude(m)": 554776.9374384157,
        "Argument of Periapsis(deg)": 0.011503089823870818,
        "Eccentricity": 0.0,
        "Inclination(deg)": 53.0,
        "Latitude(deg)": -3.5596152502458698,
        "Longitude(deg)": -8.693094426832896,
        "Mean Anomaly(deg)": -175.67817028262843,
        "RAAN(deg)": 269.9828805874434,
        "Satellite Name": "Starlink Shell 1 1198",
        "Satellite Number": 1198,
        "Semi-Major Axis(m)": 6931778.249405717,
        "Time(s)": 330
    },
    {
        "Altitude(m)": 554863.1440654784,
        "Argument of Periapsis(deg)": 0.011851668303382053,
        "Eccentricity": 0.0,
        "Inclination(deg)": 53.0,
        "Latitude(deg)": -4.062824523930307,
        "Longitude(deg)": -8.356123384697012,
        "Mean Anomaly(deg)": -175.05133907907165,
        "RAAN(deg)": 269.9823618173659,
        "Satellite Name": "Starlink Shell 1 1198",
        "Satellite Number": 1198,
        "Semi-Major Axis(m)": 6931778.249405717,
        "Time(s)": 340
    },
    {
        "Altitude(m)": 554952.0385246682,
        "Argument of Periapsis(deg)": 0.012200246782893292,
        "Eccentricity": 0.0,
        "Inclination(deg)": 53.0,
        "Latitude(deg)": -4.565838668985529,
        "Longitude(deg)": -8.018692240089903,
        "Mean Anomaly(deg)": -174.42450787551493,
        "RAAN(deg)": 269.98184304728846,
        "Satellite Name": "Starlink Shell 1 1198",
        "Satellite Number": 1198,
        "Semi-Major Axis(m)": 6931778.249405717,
        "Time(s)": 350
    },
    {
        "Altitude(m)": 555043.6013319389,
        "Argument of Periapsis(deg)": 0.012548825262404526,
        "Eccentricity": 0.0,
        "Inclination(deg)": 53.0,
        "Latitude(deg)": -5.0686343946854855,
        "Longitude(deg)": -7.680742087358468,
        "Mean Anomaly(deg)": -173.79767667195824,
        "RAAN(deg)": 269.981324277211,
        "Satellite Name": "Starlink Shell 1 1198",
        "Satellite Number": 1198,
        "Semi-Major Axis(m)": 6931778.249405717,
        "Time(s)": 360
    },
    {
        "Altitude(m)": 555137.8116871063,
        "Argument of Periapsis(deg)": 0.012897403741915765,
        "Eccentricity": 0.0,
        "Inclination(deg)": 53.0,
        "Latitude(deg)": -5.571188306924279,
        "Longitude(deg)": -7.342214301412563,
        "Mean Anomaly(deg)": -173.17084546840158,
        "RAAN(deg)": 269.9808055071335,
        "Satellite Name": "Starlink Shell 1 1198",
        "Satellite Number": 1198,
        "Semi-Major Axis(m)": 6931778.249405717,
        "Time(s)": 370
    }
]